{
    "links": {
        "self": "http://www.neowsapp.com/rest/v1/neo/3167365?api_key=iIulBulltgU6a56xZRHN4H3l9WmuAYTsLGpBGhQ2"
    },
    "id": "3167365",
    "neo_reference_id": "3167365",
    "name": "(2003 WH98)",
    "designation": "2003 WH98",
    "nasa_jpl_url": "http://ssd.jpl.nasa.gov/sbdb.cgi?sstr=3167365",
    "absolute_magnitude_h": 26.6,
    "estimated_diameter": {
        "kilometers": {
            "estimated_diameter_min": 0.0127219879,
            "estimated_diameter_max": 0.0284472297
        },
        "meters": {
            "estimated_diameter_min": 12.7219878539,
            "estimated_diameter_max": 28.4472296503
        },
        "miles": {
            "estimated_diameter_min": 0.0079050743,
            "estimated_diameter_max": 0.0176762835
        },
        "feet": {
            "estimated_diameter_min": 41.7388066307,
            "estimated_diameter_max": 93.330808926
        }
    },
    "is_potentially_hazardous_asteroid": false,
    "close_approach_data": [
        {
            "close_approach_date": "1959-09-25",
            "close_approach_date_full": "1959-Sep-25 07:39",
            "epoch_date_close_approach": -324058860000,
            "relative_velocity": {
                "kilometers_per_second": "20.228513203",
                "kilometers_per_hour": "72822.6475308324",
                "miles_per_hour": "45249.1611838108"
            },
            "miss_distance": {
                "astronomical": "0.4227687518",
                "lunar": "164.4570444502",
                "kilometers": "63245304.771838666",
                "miles": "39298810.0751829508"
            },
            "orbiting_body": "Earth"
        },
        {
            "close_approach_date": "1963-01-16",
            "close_approach_date_full": "1963-Jan-16 03:07",
            "epoch_date_close_approach": -219617580000,
            "relative_velocity": {
                "kilometers_per_second": "19.6582378374",
                "kilometers_per_hour": "70769.6562146796",
                "miles_per_hour": "43973.5122185047"
            },
            "miss_distance": {
                "astronomical": "0.4027294626",
                "lunar": "156.6617609514",
                "kilometers": "60247469.791204662",
                "miles": "37436041.7959298556"
            },
            "orbiting_body": "Earth"
        },
        {
            "close_approach_date": "2003-09-05",
            "close_approach_date_full": "2003-Sep-05 18:10",
            "epoch_date_close_approach": 1062785400000,
            "relative_velocity": {
                "kilometers_per_second": "14.4880005221",
                "kilometers_per_hour": "52156.8018794581",
                "miles_per_hour": "32408.2083678222"
            },
            "miss_distance": {
                "astronomical": "0.0990726684",
                "lunar": "38.5392680076",
                "kilometers": "14821060.167856308",
                "miles": "9209379.7436927304"
            },
            "orbiting_body": "Mars"
        },
        {
            "close_approach_date": "2003-11-28",
            "close_approach_date_full": "2003-Nov-28 22:20",
            "epoch_date_close_approach": 1070058000000,
            "relative_velocity": {
                "kilometers_per_second": "7.1891642722",
                "kilometers_per_hour": "25880.9913799995",
                "miles_per_hour": "16081.4415605336"
            },
            "miss_distance": {
                "astronomical": "0.0116863225",
                "lunar": "4.5459794525",
                "kilometers": "1748248.954133075",
                "miles": "1086311.527163435"
            },
            "orbiting_body": "Earth"
        }
    ],
    "orbital_data": {
        "orbit_id": "10",
        "orbit_determination_date": "2017-04-06 09:13:30",
        "first_observation_date": "2003-11-26",
        "last_observation_date": "2003-11-30",
        "data_arc_in_days": 4,
        "observations_used": 40,
        "orbit_uncertainty": "7",
        "minimum_orbit_intersection": ".00714649",
        "jupiter_tisserand_invariant": "3.504",
        "epoch_osculation": "2459000.5",
        "eccentricity": ".5381060476312808",
        "semi_major_axis": "2.147658233410265",
        "inclination": "3.545704325888947",
        "ascending_node_longitude": "68.64791258492058",
        "orbital_period": "1149.598487630082",
        "perihelion_distance": ".9919903497670887",
        "perihelion_argument": "353.6661309709492",
        "aphelion_distance": "3.303326117053441",
        "perihelion_time": "2458723.835790499674",
        "mean_anomaly": "86.63817540804415",
        "mean_motion": ".313152812806971",
        "equinox": "J2000",
        "orbit_class": {
            "orbit_class_type": "APO",
            "orbit_class_description": "Near-Earth asteroid orbits which cross the Earth’s orbit similar to that of 1862 Apollo",
            "orbit_class_range": "a (semi-major axis) > 1.0 AU; q (perihelion) < 1.017 AU"
        }
    },
    "is_sentry_object": false
}